{"type": "FeatureCollection", "features": [ {"type": "Feature", "properties": {"norad_id": 30048, "name": "FENGYUN 1C DEB", "group": "fengyun-1c-debris", "lat": 75.16349366781753, "lon": 168.3139540965527, "alt_km": 1089.8319597141726, "timestamp": "2025-12-02T19:35:50.829187+00:00", "meta": {"OBJECT_NAME": "FENGYUN 1C DEB", "OBJECT_ID": "1999-025NZ", "EPOCH": "2025-12-02T04:09:30.191040", "MEAN_MOTION": 13.79882315, "ECCENTRICITY": 0.01863754, "INCLINATION": 98.6671, "RA_OF_ASC_NODE": 202.8805, "ARG_OF_PERICENTER": 273.5914, "MEAN_ANOMALY": 209.9468, "EPHEMERIS_TYPE": 0, "CLASSIFICATION_TYPE": "U", "NORAD_CAT_ID": 30048, "ELEMENT_SET_NO": 999, "REV_AT_EPOCH": 94980, "BSTAR": 0.00033082483, "MEAN_MOTION_DOT": 3.5e-06, "MEAN_MOTION_DDOT": 0}, "tle": {"line1": "1 30048U 99025NZ  25336.17326610  .00000350  00000+0  33082-3 0  9991", "line2": "2 30048  98.6671 202.8805 0186375 273.5914 209.9468 13.79882315949805"}}, "geometry": {"type": "Point", "coordinates": [168.3139540965527, 75.16349366781753]}}, {"type": "Feature", "properties": {"norad_id": 30050, "name": "FENGYUN 1C DEB", "group": "fengyun-1c-debris", "lat": -59.82034291707363, "lon": 107.83042545797083, "alt_km": 1079.045430391623, "timestamp": "2025-12-02T19:35:50.829198+00:00", "meta": {"OBJECT_NAME": "FENGYUN 1C DEB", "OBJECT_ID": "1999-025PB", "EPOCH": "2025-12-01T21:56:59.782848", "MEAN_MOTION": 13.84995375, "ECCENTRICITY": 0.01717025, "INCLINATION": 96.8174, "RA_OF_ASC_NODE": 299.0443, "ARG_OF_PERICENTER": 60.8181, "MEAN_ANOMALY": 5.0422, "EPHEMERIS_TYPE": 0, "CLASSIFICATION_TYPE": "U", "NORAD_CAT_ID": 30050, "ELEMENT_SET_NO": 999, "REV_AT_EPOCH": 95052, "BSTAR": 0.0012418003, "MEAN_MOTION_DOT": 1.55e-05, "MEAN_MOTION_DDOT": 0}, "tle": {"line1": "1 30050U 99025PB  25335.91458082  .00001550  00000+0  12418-2 0  9996", "line2": "2 30050  96.8174 299.0443 0171702  60.8181   5.0422 13.84995375950526"}}, "geometry": {"type": "Point", "coordinates": [107.83042545797083, -59.82034291707363]}}, {"type": "Feature", "properties": {"norad_id": 30052, "name": "FENGYUN 1C DEB", "group": "fengyun-1c-debris", "lat": -43.695319484687396, "lon": 173.6755734341779, "alt_km": 817.2971986896728, "timestamp": "2025-12-02T19:35:50.829208+00:00", "meta": {"OBJECT_NAME": "FENGYUN 1C DEB", "OBJECT_ID": "1999-025PD", "EPOCH": "2025-12-02T01:16:07.280256", "MEAN_MOTION": 13.72940092, "ECCENTRICITY": 0.02887797, "INCLINATION": 99.3004, "RA_OF_ASC_NODE": 1.9405, "ARG_OF_PERICENTER": 260.3243, "MEAN_ANOMALY": 153.1884, "EPHEMERIS_TYPE": 0, "CLASSIFICATION_TYPE": "U", "NORAD_CAT_ID": 30052, "ELEMENT_SET_NO": 999, "REV_AT_EPOCH": 94408, "BSTAR": 0.00052543112, "MEAN_MOTION_DOT": 6.08e-06, "MEAN_MOTION_DDOT": 0}, "tle": {"line1": "1 30052U 99025PD  25336.05286204  .00000608  00000+0  52543-3 0  9996", "line2": "2 30052  99.3004   1.9405 0288779 260.3243 153.1884 13.72940092944089"}}, "geometry": {"type": "Point", "coordinates": [173.6755734341779, -43.695319484687396]}}, {"type": "Feature", "properties": {"norad_id": 30053, "name": "FENGYUN 1C DEB", "group": "fengyun-1c-debris", "lat": 30.566301606534022, "lon": 145.49742272803462, "alt_km": 692.1294704621332, "timestamp": "2025-12-02T19:35:50.829219+00:00", "meta": {"OBJECT_NAME": "FENGYUN 1C DEB", "OBJECT_ID": "1999-025PE", "EPOCH": "2025-12-02T10:58:51.525984", "MEAN_MOTION": 13.94048701, "ECCENTRICITY": 0.033181, "INCLINATION": 98.5755, "RA_OF_ASC_NODE": 150.2763, "ARG_OF_PERICENTER": 6.9854, "MEAN_ANOMALY": 21.714, "EPHEMERIS_TYPE": 0, "CLASSIFICATION_TYPE": "U", "NORAD_CAT_ID": 30053, "ELEMENT_SET_NO": 999, "REV_AT_EPOCH": 94843, "BSTAR": 0.0017713, "MEAN_MOTION_DOT": 3.662e-05, "MEAN_MOTION_DDOT": 0}, "tle": {"line1": "1 30053U 99025PE  25336.45754081  .00003662  00000+0  17713-2 0  9996", "line2": "2 30053  98.5755 150.2763 0331810   6.9854  21.7140 13.94048701948434"}}, "geometry": {"type": "Point", "coordinates": [145.49742272803462, 30.566301606534022]}}, {"type": "Feature", "properties": {"norad_id": 30054, "name": "FENGYUN 1C DEB", "group": "fengyun-1c-debris", "lat": -80.5799897312697, "lon": 104.73201914487294, "alt_km": 1111.1244855079267, "timestamp": "2025-12-02T19:35:50.829229+00:00", "meta": {"OBJECT_NAME": "FENGYUN 1C DEB", "OBJECT_ID": "1999-025PF", "EPOCH": "2025-12-02T08:03:29.331360", "MEAN_MOTION": 13.69845322, "ECCENTRICITY": 0.0276268, "INCLINATION": 99.3729, "RA_OF_ASC_NODE": 8.8339, "ARG_OF_PERICENTER": 32.284, "MEAN_ANOMALY": 29.733, "EPHEMERIS_TYPE": 0, "CLASSIFICATION_TYPE": "U", "NORAD_CAT_ID": 30054, "ELEMENT_SET_NO": 999, "REV_AT_EPOCH": 94206, "BSTAR": 0.00065848, "MEAN_MOTION_DOT": 7.12e-06, "MEAN_MOTION_DDOT": 0}, "tle": {"line1": "1 30054U 99025PF  25336.33575615  .00000712  00000+0  65848-3 0  9994", "line2": "2 30054  99.3729   8.8339 0276268  32.2840  29.7330 13.69845322942062"}}, "geometry": {"type": "Point", "coordinates": [104.73201914487294, -80.5799897312697]}}, {"type": "Feature", "properties": {"norad_id": 30056, "name": "FENGYUN 1C DEB", "group": "fengyun-1c-debris", "lat": 67.73650880984634, "lon": 142.77162053287879, "alt_km": 1195.3835129590498, "timestamp": "2025-12-02T19:35:50.829240+00:00", "meta": {"OBJECT_NAME": "FENGYUN 1C DEB", "OBJECT_ID": "1999-025PH", "EPOCH": "2025-12-02T12:15:08.050176", "MEAN_MOTION": 13.73867532, "ECCENTRICITY": 0.0300312, "INCLINATION": 98.3223, "RA_OF_ASC_NODE": 163.4537, "ARG_OF_PERICENTER": 238.4304, "MEAN_ANOMALY": 118.7208, "EPHEMERIS_TYPE": 0, "CLASSIFICATION_TYPE": "U", "NORAD_CAT_ID": 30056, "ELEMENT_SET_NO": 999, "REV_AT_EPOCH": 93835, "BSTAR": 0.003493, "MEAN_MOTION_DOT": 4.496e-05, "MEAN_MOTION_DDOT": 0}, "tle": {"line1": "1 30056U 99025PH  25336.51050984  .00004496  00000+0  34930-2 0  9993", "line2": "2 30056  98.3223 163.4537 0300312 238.4304 118.7208 13.73867532938355"}}, "geometry": {"type": "Point", "coordinates": [142.77162053287879, 67.73650880984634]}}, {"type": "Feature", "properties": {"norad_id": 30057, "name": "FENGYUN 1C DEB", "group": "fengyun-1c-debris", "lat": 69.32744544083599, "lon": 22.010001915469445, "alt_km": 1073.4673439951302, "timestamp": "2025-12-02T19:35:50.829250+00:00", "meta": {"OBJECT_NAME": "FENGYUN 1C DEB", "OBJECT_ID": "1999-025PJ", "EPOCH": "2025-12-02T10:29:00.796992", "MEAN_MOTION": 13.57083033, "ECCENTRICITY": 0.029294, "INCLINATION": 98.8844, "RA_OF_ASC_NODE": 46.1562, "ARG_OF_PERICENTER": 172.9011, "MEAN_ANOMALY": 207.4368, "EPHEMERIS_TYPE": 0, "CLASSIFICATION_TYPE": "U", "NORAD_CAT_ID": 30057, "ELEMENT_SET_NO": 999, "REV_AT_EPOCH": 93096, "BSTAR": 0.0017257, "MEAN_MOTION_DOT": 1.585e-05, "MEAN_MOTION_DDOT": 0}, "tle": {"line1": "1 30057U 99025PJ  25336.43681478  .00001585  00000+0  17257-2 0  9992", "line2": "2 30057  98.8844  46.1562 0292940 172.9011 207.4368 13.57083033930969"}}, "geometry": {"type": "Point", "coordinates": [22.010001915469445, 69.32744544083599]}}, {"type": "Feature", "properties": {"norad_id": 30058, "name": "FENGYUN 1C DEB", "group": "fengyun-1c-debris", "lat": 79.88874994663232, "lon": -126.0497365124659, "alt_km": 1039.4096235445195, "timestamp": "2025-12-02T19:35:50.829261+00:00", "meta": {"OBJECT_NAME": "FENGYUN 1C DEB", "OBJECT_ID": "1999-025PK", "EPOCH": "2025-12-02T12:39:21.220416", "MEAN_MOTION": 13.48222559, "ECCENTRICITY": 0.0315692, "INCLINATION": 99.6499, "RA_OF_ASC_NODE": 341.1079, "ARG_OF_PERICENTER": 177.7235, "MEAN_ANOMALY": 315.7778, "EPHEMERIS_TYPE": 0, "CLASSIFICATION_TYPE": "U", "NORAD_CAT_ID": 30058, "ELEMENT_SET_NO": 999, "REV_AT_EPOCH": 92710, "BSTAR": 0.00069755, "MEAN_MOTION_DOT": 5.44e-06, "MEAN_MOTION_DDOT": 0}, "tle": {"line1": "1 30058U 99025PK  25336.52732894  .00000544  00000+0  69755-3 0  9997", "line2": "2 30058  99.6499 341.1079 0315692 177.7235 315.7778 13.48222559927105"}}, "geometry": {"type": "Point", "coordinates": [-126.0497365124659, 79.88874994663232]}}, {"type": "Feature", "properties": {"norad_id": 30059, "name": "FENGYUN 1C DEB", "group": "fengyun-1c-debris", "lat": -10.059301673966372, "lon": -25.134955798270003, "alt_km": 865.4826539068945, "timestamp": "2025-12-02T19:35:50.829271+00:00", "meta": {"OBJECT_NAME": "FENGYUN 1C DEB", "OBJECT_ID": "1999-025PL", "EPOCH": "2025-12-01T22:31:44.104224", "MEAN_MOTION": 13.45483118, "ECCENTRICITY": 0.03269998, "INCLINATION": 98.8221, "RA_OF_ASC_NODE": 332.5132, "ARG_OF_PERICENTER": 330.1268, "MEAN_ANOMALY": 88.5558, "EPHEMERIS_TYPE": 0, "CLASSIFICATION_TYPE": "U", "NORAD_CAT_ID": 30059, "ELEMENT_SET_NO": 999, "REV_AT_EPOCH": 92652, "BSTAR": 0.00047403221, "MEAN_MOTION_DOT": 3.49e-06, "MEAN_MOTION_DDOT": 0}, "tle": {"line1": "1 30059U 99025PL  25335.93870491  .00000349  00000+0  47403-3 0  9997", "line2": "2 30059  98.8221 332.5132 0326999 330.1268  88.5558 13.45483118926520"}}, "geometry": {"type": "Point", "coordinates": [-25.134955798270003, -10.059301673966372]}}, {"type": "Feature", "properties": {"norad_id": 30060, "name": "FENGYUN 1C DEB", "group": "fengyun-1c-debris", "lat": -67.23590629073259, "lon": -132.74403722717355, "alt_km": 1350.8289153759379, "timestamp": "2025-12-02T19:35:50.829281+00:00", "meta": {"OBJECT_NAME": "FENGYUN 1C DEB", "OBJECT_ID": "1999-025PM", "EPOCH": "2025-12-01T13:54:56.702016", "MEAN_MOTION": 13.43702168, "ECCENTRICITY": 0.03436661, "INCLINATION": 99.3146, "RA_OF_ASC_NODE": 203.0866, "ARG_OF_PERICENTER": 99.4824, "MEAN_ANOMALY": 333.001, "EPHEMERIS_TYPE": 0, "CLASSIFICATION_TYPE": "U", "NORAD_CAT_ID": 30060, "ELEMENT_SET_NO": 999, "REV_AT_EPOCH": 92093, "BSTAR": 0.0021041165, "MEAN_MOTION_DOT": 1.689e-05, "MEAN_MOTION_DDOT": 0}, "tle": {"line1": "1 30060U 99025PM  25335.57982294  .00001689  00000+0  21041-2 0  9991", "line2": "2 30060  99.3146 203.0866 0343666  99.4824 333.0010 13.43702168920930"}}, "geometry": {"type": "Point", "coordinates": [-132.74403722717355, -67.23590629073259]}}]}